[{"OBJECT_NAME":"LUSAT (LO-19)","OBJECT_ID":"1990-005G","EPOCH":"2026-03-09T14:54:14.260896","MEAN_MOTION":14.34087969,"ECCENTRICITY":0.001234,"INCLINATION":98.8938,"RA_OF_ASC_NODE":87.6461,"ARG_OF_PERICENTER":134.6824,"MEAN_ANOMALY":225.5367,"EPHEMERIS_TYPE":0,"CLASSIFICATION_TYPE":"U","NORAD_CAT_ID":20442,"ELEMENT_SET_NO":999,"REV_AT_EPOCH":88812,"BSTAR":8.4338e-5,"MEAN_MOTION_DOT":1.89e-6,"MEAN_MOTION_DDOT":0},{"OBJECT_NAME":"COSMOS 1354","OBJECT_ID":"1982-037A","EPOCH":"2026-03-09T22:34:53.659776","MEAN_MOTION":14.3278342,"ECCENTRICITY":0.00084297,"INCLINATION":74.0363,"RA_OF_ASC_NODE":286.8804,"ARG_OF_PERICENTER":123.9929,"MEAN_ANOMALY":236.2024,"EPHEMERIS_TYPE":0,"CLASSIFICATION_TYPE":"U","NORAD_CAT_ID":13148,"ELEMENT_SET_NO":999,"REV_AT_EPOCH":29084,"BSTAR":6.0712021e-5,"MEAN_MOTION_DOT":1.4e-6,"MEAN_MOTION_DDOT":0}]
